name,address,phone,lat,lon
Gankosh Coaching Center,,,23.7020893,90.4245169
"Surer Murchona Vcd,Dvd Center",,,23.7014056,90.4274237
Modina Telecom & Mobile Sarbising Center,"4, Doyagonj Bazar Road, Dhaka",,23.7110922,90.4239297
Ibne Sina D. Lab & Consultetion Center,"28, Doyagonj Natun Rasta, Dhaka",,23.7102536,90.4246
Madisin Center,,,23.7102303,90.4246161
Abargreen Academic Care,,,23.7058377,90.4250439
Geyan Kosh Coaching Centere,,,23.7030127,90.4238886
Training Centre,,,23.7016797,90.4259367
Geyan Khosh Coaching Centre,"8l1, Dinnathsen Road, Dhaka",,23.7031517,90.4232155
Kamal Srimty Pathagar,"106l5, Dinanath Sen Road, Dhaka",,23.7024339,90.4238941
Filicity Education Center,"47/2, Baghabari Lane, Dhaka",,23.7007046,90.4264518
Darull Ullum Al Amdadia,"46/A, Baghabari Lane, Dhaka",,23.7006467,90.4262612
Documents Writer Shop,,,23.7010879,90.4263076
Jamuna Electronic & Service Center,,,23.700125,90.4226958
Banglalink Service Centre,,,23.7014744,90.4287498
Digital Signboard Centere,,,23.7014695,90.4286466
Shapno Beauty Parlor & Training Centere,,,23.7020563,90.4282041
Recharge Centere,,,23.701456,90.4279934
Community Center,,,23.6987196,90.4285234
Madrasha,,,23.6987157,90.4281049
Ucash Mobile Recharge Center,"41/1/C, Haricharan Ray Road, Dhaka, 1204",,23.697605,90.4230336
Digital Centre,,,23.7041024,90.4225116
Ripon Library,,,23.6979405,90.4231019
Dhaka Coaching,"41/1, Haricharan Ray Road, Dhaka, 1204",,23.6973535,90.4233336
Taju Electronics Sarvice Center,"Haricharan Ray Road, Dhaka",,23.6982527,90.4225489
Moon Gift & Cosmetic Centre,,,23.6961874,90.4303003
College,,,23.6994482,90.4291856
City Ideal School,,,23.7030681,90.4508047
Al-Younuch Moshla Center,"Haricharan Ray Road, Dhaka, 1204",,23.6933814,90.4266587
Medicine Center,"13/A, K.M. Das Lane, Dhaka, 1203, BD",,23.717929,90.4270138
জনতাবাগ উচ্চ বিদ্যালয়,,,23.6988954,90.4575917
ইউসেপ যাত্রাবাড়ী টেকনিক্যাল স্কুল,,,23.6927029,90.4720677
Shanghai Chinese Restaurant & Party Center,"99, Dhaka-Mawa Highway, Dhaka, 1204",+8801924748437,23.7026928,90.4350153
Muktadhara Pre-Cadet School মুক্তধারা প্রি-ক্যাডেট স্কুল,,,23.6931275,90.4506772
Matuail Adorsho Kidergarden & High School,"Mridhabari-Shonirakhra Road, Dhaka, 1362, BD",,23.7123321,90.452552
Jamia Islamia Darul Ulum Madania,"312, Dhaka, BD",,23.7068914,90.4379131
Monija Rahman Girls High School,,,23.7039858,90.4226276
Rafiqul Islam Khan School and College,,,23.6945621,90.4748046
এ.কে. স্কুল অ্যান্ড কলেজ (২য় শাখা),"Dania Club Road, Dhaka, 1236",,23.6983468,90.4445521
A.K. School And College (Main Campus),"Dania-Dolairpar Road, Dhaka, 1236",,23.701902,90.4431255
Shamsul Islam Ideal School and College,"Guru Soroni, Dhaka, 1236",,23.701797,90.4473814
Rainbow Bridge Restaurant & Party Center,,+8801766884516,23.7016705,90.4476969
আদর্শ উচ্চ বিদ্যালয়,"আদর্শ স্কুল রোড, Dhaka, 1236",,23.7040522,90.4455024
স্টার লাইট প্রি ক্যাডেট স্কুল,,,23.6979749,90.4487924
S.R. Model School,,,23.6983442,90.4452641
আহম্মদিয়া জিলানিয়া হাফেজিয়া মাদ্রাসা,Baitus Salam Jame Mosjid Road,,23.6993488,90.4479021
এ.কে. স্কুল অ্যান্ড কলেজ (কলেজ ক্যাম্পাস),"ঢাকা - ডেমরা মহাসড়ক, Dhaka",,23.7109724,90.4468692
Mukul's Care,"595, দনিয়া-ধোলাইপার রোড, Dhaka, 1236, BD",+8801752777065,23.701905,90.4445349
"Madrasatus Suffa Al-Arabia Dhaka, Adj. Baitun Najat Jame Masjid, Mir Hajirbag, Jatrabari, Dhaka",,,23.7082588,90.4276994
"Progress Academy Coaching Center, Education center, 2 Mia Bari Road, Mir Hazir Bag New Road, Dhaka",,,23.7072156,90.4290883
"Sristi Telecom & Sales Center, Cell phone store, Mir Hajir Bag, Dhaka",,,23.7056852,90.4314222
"Islamia Academy Madrasah, Mir Hajirbag New Rd, Dhaka",,,23.7090825,90.4276346
"Scholar Pre-Cadet & High School, Dhaka - Barisal Highway, Dhaka",,,23.7063231,90.4345556
"Bandhan Community Center, Community center, New Road, Dhaka",,,23.7098834,90.4256068
"MTB Par Gendaria Agent Banking Centre, Doyagonj New Rd, Dhaka",,,23.7094705,90.4262051
"Islami Academy Bangladesh, Religious institution, Khaiipara Chowrasta, Dhaka",,,23.7080014,90.4292746
"Royal Society Residential Area, Residential college, Dhaka - Barisal Highway, Dhaka",,,23.7064926,90.4345812
"Anwara Homeo Medical Centre, Rahman Mansion, Jatrabari Chowrasta, Dhaka",,,23.7097546,90.4341178
"Rabbi Shopping Centre, Womens clothing store, Hazi Samad Super Market, South Jatrabari, Dhaka",,,23.7092845,90.4342269
"Al-Hakim eye hospital and Phaco Center, Hospital, Haque Plaza, Dhaka",,,23.7070106,90.4345125
"Riverview Cantonment Board School, Middle school, Dhaka - Barisal Highway, Dhaka",,,23.688777,90.4293994
"Top Tiles & Sanitary, Tile store, Ideal High School Market, North Jatrabari, Dhaka",,,23.7113867,90.4297406
"Best One Hijama Center, Hospital, Samiullah Plaza, Sahid Faruq Sarak, Dhaka",,,23.710031,90.4332148
"Rajabari Postogola Vasha Prodip High School, Dhaka - Barisal Highway, Dhaka",,,23.6898249,90.4307257
"M/s. New Sonali Tiles & Sanitary, West Of Ideal School, North West Jatrabari, Dhaka",,,23.7113386,90.4291937
"Hazi Market, Muradpur Hogh School Road, Jurain, Dhaka",,,23.6974247,90.4364859
"Madrasatul Falah International Dhaka, High school, Dhaka Mawa Road, Dhaka",,,23.694671,90.4362061
"Dholaipar Community Center, Community center, Service Rd, Dhaka - Mawa Hwy, Dhaka",,,23.7015924,90.4358684
"Jamiatul Abrar Madrasa, Kindergarten, Dhonia - Dholaipar Rd, Dhaka",,,23.7011249,90.4366771
"Amena Medical center, Medical Center, Dhonia Bazar Rd, Dhaka",,,23.7022135,90.4364704
"Dhaka Refilling And Service Centre Ltd, Gas station, Dhaka - Mawa Hwy, Dhaka",,,23.7047886,90.4353703
"Bangladesh Water Development Board Primary School, South Jatrabari, Dhaka",,,23.7073436,90.4356945
"Metropolitan School & College, South Jatrabari, Dhaka",,,23.7085103,90.4352421
"Scholars Coaching Centre, Education center, Dhaka - Sylhet Hwy, Dhaka",,,23.710982,90.4328328
"Cambrian College South Jatrabari, South Jatrabari, Dhaka",,,23.7092705,90.4349064
"Baitul Quran Was Sunnah Madrasa, BGB Bazar-Jatrabari, B.G B Market, Dhaka",,,23.7070399,90.4352214
"Noor Mosjid and Hifjul Quran Madrasha, Begum Ganj Ln, Dhaka",,,23.7092806,90.4225408
Madrasatul Qasem Al-Islamia,,,23.7196751,90.4286956
Markazul Uloom Womens Madrasa and Kindergarten,,,23.7126617,90.4309791
Little Friends Nursery School,,,23.7189767,90.4296706
AYAT College of Nursing & Health Sciences (ACNHS),,,23.7211551,90.4287503
KIBS English Medium Institute,,,23.7196895,90.4297591
Jamia Markazud Durus Al Islamia - Markazud Durus,,,23.7214782,90.4304845
Rizaul Karim Chowdhury Degree College,,,23.7147387,90.4290867
Brahmonchiron Government Primary School,,,23.7166838,90.4307333
Rose Garden High School Main Branch,,,23.7164766,90.4310017
Best Website And Software Development Company in Jatrabari,,,23.7129311,90.4304511
Udvash Jatrabari Branch,Shahid Faruk Road,09666775566,23.7094679,90.4329882
Bangladesh Bank Adarsha High School,Dhaka,,23.6978621,90.4252498
Necharia Kamil Madrasa,"46, Dhalka Nagar Lane, Dhaka, 1204",,23.6974915,90.4273583
Anjuman Jamilul School,"12/1, Akkhay Das Lane, Dhaka",,23.7029136,90.4214842
Anjuman Jamilur Rahman Islamiya Junior High School,"12/1, Akshay Das Lane, Dhaka",,23.7031333,90.4213393
Kazi Nazrul Islam Sarkari School,"84/2, Dhalka Nogor Lane, Dhaka",,23.7005158,90.4244288
Gandaria Govt. Girl's Primary School,"7, Dinnath Sen Road, Dhaka",,23.702801,90.42307
Monija Rahman Girl's School and College,"7, Dinnath Sen Road, Dhaka",,23.7028948,90.4230826
Gandaria Ideal School & College,"6/2, Shasibhusun Chartijee Lane, Dhaka",,23.7058222,90.4230446
Gandaria Mohila Samiti Government Primary School,"17, Shoshibushun Road, Dhaka",,23.7049216,90.4236984
দনিয়া বিশ্ববিদ্যালয় কলেজ,"Dhaka–Chittagong Highway, Dhaka, 1236",,23.7036155,90.4477191
বর্ণমালা আদর্শ উচ্চ বিদ্যালয় ও কলেজ,"Shanir Akhra, Dhaka, 1236",,23.7022922,90.4481928
Dolairpar High School,"Mirhajirbag Road, Dhaka",,23.7029608,90.4339033
Jagannath University Play Ground,,,23.7070102,90.422629
Meyor Mohammad Sayed Khokon Center,Dhaka,,23.7076971,90.4227922
Bangladesh Bank Adorsho Uccho Biddaloy,"Bank Colony Road, Dhaka",,23.6969513,90.425578
Manija Rahman Girls School,"23-26, Rajani Chowdhury Road, Dhaka",,23.7038508,90.4226794
Anjuman Mufidul Islam Boys Orphanage & Technical Institute,"44, Rajani Chowdhury Road, Dhaka",,23.7038903,90.4216968
Hazrat Fatema Mohila Madrasa,"99/5, Dinanath Sen Road, Dhaka",,23.7026928,90.4250804
Fazlul Haque Mahila College Market.,"16, 17, Akshay, Dhaka",,23.7022803,90.4223777
Shapla Kinder Garten,"18, S B C Lane, Dhaka",,23.7050902,90.423778
Gandaria High School,,,23.7015344,90.4244242
Gandaria Government Primary School,"Dinanat Sen Road, Dhaka",,23.7049756,90.425784
Koratitola C.M.S Memorial High School and college,"42/1, Koratitola road, Dhaka, 1100",,23.7141177,90.4254276
Rose Garden School,"52/3, Dhalka Nagor Lane",,23.6981163,90.4264018
Fair International High School,"42/1, Horechoron Ray Road",,23.6977123,90.4235981
Adorsho Accademy Gendariya,"33/Kha/10, Shatis Soekar",,23.7025547,90.4271631
Kisholy Kochi Kachar Mela,,,23.7031792,90.4235725
Nesaria Kamil Madrasa,"46, Dhalka Nagar Lane, Dhaka, 1204",,23.6974329,90.4271745
Cox View International School,"62, Dhalka Nagar Lane, Dhaka, 1204",,23.7004589,90.4237055
Baytul Ullum Madrasha,"Dhalka Nagar Lane, Dhaka",,23.7003364,90.4254765
Shamsul Haque Khan School & College Road,,,23.7045434,90.4719474
Saheed Kazi Aref School,,,23.7164285,90.4257242
Dhaka Cotton Mill Adarsha High School,"Haricharan Ray Road, Dhaka, 1204",,23.6930759,90.4268088
Dhalpur Community Centre,,,23.7174128,90.431542
Jago Art Center,,,23.7161731,90.4247114
River View HIgh Schools & College,C 34,,23.6929137,90.4243424
Kobbad Sardar School,Distillery Road,,23.7075479,90.4232035
এ.কে. স্কুল অ্যান্ড কলেজ (প্রধান শাখা),"Dania-Dolairpar Road, Dhaka, 1236",,23.7019235,90.4430708
Dr. Mahbubur Rahman Mollah College,"Dhaka, 1362",,23.7164649,90.461845
College Road,,,23.6889305,90.4476056
College Road,,,23.6885308,90.4473253
Modern Language Center,"88/3, Jatrabari Road, Dhaka, 1204",,23.710993,90.4323113
Dolairpar Primery School,"West Dolairpar, dolaipar high school road, Dhaka, 1204",,23.7025803,90.4333141
Dolairpar High School. Building-1,"dolaipar high school road, Dhaka, 1204",,23.7027843,90.4333821
Dhaka International Diploma Medical College,,,23.7010008,90.4350937
"Golden Sun Thai, Chinese Restaurant & Party Center",,,23.7025566,90.4347867
Somrat Community Center সম্রাট কমিউনিটি সেন্টার,,,23.7051724,90.4355185
Shimul Coaching Academy শিমুল কোচিং একাডেমী,,,23.6851217,90.4380899
Rifa Convention Center,,,23.6866156,90.4342913
Jatrabari Ideal High School playground,,,23.7112439,90.4299665
Jatrabari Ideal High School,,,23.7112177,90.4298582
School Road,,,23.6941812,90.4744063
Dolairpar KinderGarden School,"64-B, West Dholaipar, wazed ali street, Dhaka, 1204",,23.6997985,90.4330664
তামিরুল মিল্লাত মহিলা কামিল মাদরাসা,,,23.6945874,90.4759169
মানিকনগর মডেল উচ্চ বিদ্যালয়,,,23.7221706,90.4347001
বাংলাদেশ ইসলামী বিশ্ববিদ্যালয়,,,23.7290761,90.4521073
Matuail Girls High School Playground,,,23.7093419,90.4600557
Matuail Bahumukhi High School Playground,,,23.7084871,90.4595973
Gobindapur Govt. Primary High School Playground,,,23.7048254,90.4526379
Park International School & College,"13, Road 9, Block A, Green Model Town",+880247213891,23.7270847,90.4476564
